ION SCV-004             
1 50993U 22002K   26068.68892644  .00006538  00000+0  23198-3 0  9998
2 50993  97.2961 128.2294 0007216   1.6783 358.4480 15.29369331230088
STARLINK-35522          
1 66341U 25253Y   26068.43440559  .00036998  00000+0  13462-2 0  9995
2 66341  42.9998 214.1001 0002989 293.4292  66.6246 15.27603366 20204
