[{"OBJECT_NAME":"ION SCV-004","OBJECT_ID":"2022-002K","EPOCH":"2026-03-09T16:32:03.244416","MEAN_MOTION":15.29369331,"ECCENTRICITY":0.00072157,"INCLINATION":97.2961,"RA_OF_ASC_NODE":128.2294,"ARG_OF_PERICENTER":1.6783,"MEAN_ANOMALY":358.448,"EPHEMERIS_TYPE":0,"CLASSIFICATION_TYPE":"U","NORAD_CAT_ID":50993,"ELEMENT_SET_NO":999,"REV_AT_EPOCH":23008,"BSTAR":0.00023198467,"MEAN_MOTION_DOT":6.538e-5,"MEAN_MOTION_DDOT":0},{"OBJECT_NAME":"STARLINK-35522","OBJECT_ID":"2025-253Y","EPOCH":"2026-03-09T10:25:32.642976","MEAN_MOTION":15.27603366,"ECCENTRICITY":0.0002989,"INCLINATION":42.9998,"RA_OF_ASC_NODE":214.1001,"ARG_OF_PERICENTER":293.4292,"MEAN_ANOMALY":66.6246,"EPHEMERIS_TYPE":0,"CLASSIFICATION_TYPE":"U","NORAD_CAT_ID":66341,"ELEMENT_SET_NO":999,"REV_AT_EPOCH":2020,"BSTAR":0.0013462243,"MEAN_MOTION_DOT":0.00036998,"MEAN_MOTION_DDOT":0}]
